# Made by eph2tle, compiled Nov  4 2024 12:27:56
# Run at Sat Dec  7 22:01:25 2024
#
#    The following TLEs (Two-Line Elements) were generated by fitting
# a numerically-integrated ephemeris,  based on the orbit given below,
# to the SDP4/SGP4 models.  Each TLE is good for the interval between
# its epoch and the epoch of the subsequent TLE (usually one day).
# The maximum deviation between the numerically integrated ephemerides
# and the TLE-based ephemeris, in kilometers,  is given for each TLE
# as the "worst residual".
#
#    This fitting is done using the 'eph2tle' code packaged with Find_Orb.
# The code has details on how the TLEs were computed :
#
#    https://github.com/Bill-Gray/find_orb/eph2tle.cpp
#
#    Be warned:  the error given is that between the numerically
# integrated ephems and the TLE model.  There will usually be at
# least some additional difference between the ephems and the actual
# motion of the satellite,  especially if the ephemerides are based
# on a short arc.  If the following orbital elements say something
# like "[based on] 10 observations 2015 Jan. 1-13",  and the TLEs
# are for 2015 May,  the extrapolation may be tenuous at best.  If
# your application requires a specific level of accuracy,  you may
# want to contact me;  I can give you some idea as to the fit of the
# underlying data (and possibly TLEs based on newer data).
#
#   You can usually find the underlying observational data,  and the
# fitted orbit,  residuals,  ephemerides,  and sometimes some comments
# about the object,  among the pages listed at
#
#    https://www.projectpluto.com/pluto/mpecs/pseudo.htm
#
#    Also,  if you use a TLE outside the "correct" time range (between
# its MJD and that of the next TLE),  all bets are off.  I've carefully
# computed and minimized the worst error over the "correct" time frame,
# but the ephemeris may (or may not) diverge wildly outside of it.
#
# Ephem range: 60554.000000 60724.000000 1.000000
# Created Sat Dec  7 22:01:11 2024
# Ephemeris start:  1 Sep 2024  0:00:00
# Ephemeris end:   18 Feb 2025  0:00:00
# Times are all TDT
# Positions/velocities are in equatorial J2000
# Orbital elements:  C43LR41 = A11bTdy
#    Perigee 2024 Oct 27.138551 +/- 0.000116 TT =  3:19:30.7 (JD 2460610.638551)
# A1: (943.48 +/- 1.75)e-8   A2: (32 +/- 4)e-9
# A3: (-3.27 +/- 2.33)e-9 AU/day^2 [1/r^2]
# Epoch 2024 Oct 27.0 TT = JDT 2460610.5                           Find_Orb
# M 308.020242783 +/- 0.043           (J2000 equator)
# n 375.167953283 +/- 0.00057         Peri.  328.068315 +/- 0.008
# a 41094.75070 +/- 0.0416            Node   246.701853 +/- 0.0043
# e   0.73747425 +/- 7.08e-5          Incl.    9.130487 +/- 0.0020
# P1381.755m/0.960d          H 33.40  G  0.15   U  7.7
# q 10788.42993 +/- 2.92    Q 71401.07146 +/- 2.85
# From 22 observations 2024 Sept. 29-Nov. 24; mean residual 4".978
#
# 1 NoradU COSPAR   Epoch.epoch     dn/dt/2  d2n/dt2/6 BSTAR    T El# C
# 2 NoradU Inclina RAAscNode Eccent  ArgPeri MeanAno  MeanMotion Rev# C

# Worst residual: 40.75 km
# MJD 60554.000000 (2024 Sep  1  0:00)
C43LR41 = A11bTdy
1 79906U 24999ZYW 24245.49919926  .00000000  00000-0  00000-0 0 25347
2 79906 008.4604 263.3941 6523325 285.3305 172.4315 01.03170843    05

# Worst residual: 48.34 km
# MJD 60555.000000 (2024 Sep  2  0:00)
C43LR41 = A11bTdy
1 79906U 24999ZYW 24246.49919926  .00000000  00000-0  00000-0 0 25348
2 79906 008.4897 262.6967 6548495 286.4964 183.8705 01.03172018    02

# Worst residual: 57.59 km
# MJD 60556.000000 (2024 Sep  3  0:00)
C43LR41 = A11bTdy
1 79906U 24999ZYW 24247.49919926  .00000000  00000-0  00000-0 0 25349
2 79906 008.5185 261.9489 6574781 287.7053 195.3237 01.03182611    02

# Worst residual: 70.88 km
# MJD 60557.000000 (2024 Sep  4  0:00)
C43LR41 = A11bTdy
1 79906U 24999ZYW 24248.49919926  .00000000  00000-0  00000-0 0 25340
2 79906 008.5526 261.2733 6602425 288.8471 206.7719 01.03211428    00

# Worst residual: 83.98 km
# MJD 60558.000000 (2024 Sep  5  0:00)
C43LR41 = A11bTdy
1 79906U 24999ZYW 24249.49919926  .00000000  00000-0  00000-0 0 25341
2 79906 008.5744 260.6117 6631151 289.9761 218.2191 01.03247539    07

# Worst residual: 85.38 km
# MJD 60559.000000 (2024 Sep  6  0:00)
C43LR41 = A11bTdy
1 79906U 24999ZYW 24250.49919926  .00000000  00000-0  00000-0 0 25343
2 79906 008.6148 259.8591 6659667 291.2111 229.6342 01.03279015    07

# Worst residual: 115.01 km
# MJD 60560.000000 (2024 Sep  7  0:00)
C43LR41 = A11bTdy
1 79906U 24999ZYW 24251.49919926  .00000000  00000-0  00000-0 0 25344
2 79906 008.6527 259.1582 6685094 292.4088 241.0223 01.03308588    04

# Worst residual: 144.31 km
# MJD 60561.000000 (2024 Sep  8  0:00)
C43LR41 = A11bTdy
1 79906U 24999ZYW 24252.49919926  .00000000  00000-0  00000-0 0 25345
2 79906 008.6917 258.4844 6709566 293.5692 252.4311 01.03334567    04

# Worst residual: 150.40 km
# MJD 60562.000000 (2024 Sep  9  0:00)
C43LR41 = A11bTdy
1 79906U 24999ZYW 24253.49919926  .00000000  00000-0  00000-0 0 25346
2 79906 008.7332 257.8163 6734217 294.7245 263.8398 01.03367766    09

# Worst residual: 126.62 km
# MJD 60563.000000 (2024 Sep 10  0:00)
C43LR41 = A11bTdy
1 79906U 24999ZYW 24254.49919926  .00000000  00000-0  00000-0 0 25347
2 79906 008.7737 257.1582 6759396 295.8847 275.2251 01.03408235    03

# Worst residual: 126.60 km
# MJD 60564.000000 (2024 Sep 11  0:00)
C43LR41 = A11bTdy
1 79906U 24999ZYW 24255.49919926  .00000000  00000-0  00000-0 0 25348
2 79906 008.8111 256.5399 6780546 296.9929 286.6204 01.03434677    06

# Worst residual: 127.19 km
# MJD 60565.000000 (2024 Sep 12  0:00)
C43LR41 = A11bTdy
1 79906U 24999ZYW 24256.49919926  .00000000  00000-0  00000-0 0 25349
2 79906 008.8596 255.9938 6801240 298.0242 298.0317 01.03461767    03

# Worst residual: 120.47 km
# MJD 60566.000000 (2024 Sep 13  0:00)
C43LR41 = A11bTdy
1 79906U 24999ZYW 24257.49919926  .00000000  00000-0  00000-0 0 25340
2 79906 008.9064 255.4279 6821900 299.0763 309.4578 01.03482829    09

# Worst residual: 124.13 km
# MJD 60567.000000 (2024 Sep 14  0:00)
C43LR41 = A11bTdy
1 79906U 24999ZYW 24258.49919926  .00000000  00000-0  00000-0 0 25341
2 79906 008.9444 254.8707 6843041 300.1255 320.8565 01.03519809    02

# Worst residual: 121.00 km
# MJD 60568.000000 (2024 Sep 15  0:00)
C43LR41 = A11bTdy
1 79906U 24999ZYW 24259.49919926  .00000000  00000-0  00000-0 0 25342
2 79906 008.9782 254.3958 6861647 301.0749 332.2898 01.03544807    02

# Worst residual: 111.98 km
# MJD 60569.000000 (2024 Sep 16  0:00)
C43LR41 = A11bTdy
1 79906U 24999ZYW 24260.49919926  .00000000  00000-0  00000-0 0 25344
2 79906 009.0246 253.8582 6881901 302.0950 343.7168 01.03567136    03

# Worst residual: 90.50 km
# MJD 60570.000000 (2024 Sep 17  0:00)
C43LR41 = A11bTdy
1 79906U 24999ZYW 24261.49919926  .00000000  00000-0  00000-0 0 25345
2 79906 009.0639 253.3428 6902832 303.0911 355.1374 01.03570823    01

# Worst residual: 81.78 km
# MJD 60571.000000 (2024 Sep 18  0:00)
C43LR41 = A11bTdy
1 79906U 24999ZYW 24262.49919926  .00000000  00000-0  00000-0 0 25346
2 79906 009.1089 252.8652 6921889 304.0642 006.5305 01.03579006    02

# Worst residual: 96.84 km
# MJD 60572.000000 (2024 Sep 19  0:00)
C43LR41 = A11bTdy
1 79906U 24999ZYW 24263.49919926  .00000000  00000-0  00000-0 0 25347
2 79906 009.1496 252.4100 6940927 305.0074 017.9277 01.03567748    06

# Worst residual: 105.21 km
# MJD 60573.000000 (2024 Sep 20  0:00)
C43LR41 = A11bTdy
1 79906U 24999ZYW 24264.49919926  .00000000  00000-0  00000-0 0 25348
2 79906 009.1874 251.9945 6959740 305.9123 029.3123 01.03546298    08

# Worst residual: 102.92 km
# MJD 60574.000000 (2024 Sep 21  0:00)
C43LR41 = A11bTdy
1 79906U 24999ZYW 24265.49919926  .00000000  00000-0  00000-0 0 25349
2 79906 009.2146 251.6114 6977823 306.7863 040.6758 01.03509890    05

# Worst residual: 109.92 km
# MJD 60575.000000 (2024 Sep 22  0:00)
C43LR41 = A11bTdy
1 79906U 24999ZYW 24266.49919926  .00000000  00000-0  00000-0 0 25340
2 79906 009.2557 251.2400 6994554 307.6410 052.0607 01.03479322    09

# Worst residual: 105.27 km
# MJD 60576.000000 (2024 Sep 23  0:00)
C43LR41 = A11bTdy
1 79906U 24999ZYW 24267.49919926  .00000000  00000-0  00000-0 0 25341
2 79906 009.2896 250.8736 7011940 308.4855 063.4448 01.03441291    07

# Worst residual: 119.93 km
# MJD 60577.000000 (2024 Sep 24  0:00)
C43LR41 = A11bTdy
1 79906U 24999ZYW 24268.49919926  .00000000  00000-0  00000-0 0 25342
2 79906 009.3238 250.5151 7029450 309.3294 074.8056 01.03402306    03

# Worst residual: 133.38 km
# MJD 60578.000000 (2024 Sep 25  0:00)
C43LR41 = A11bTdy
1 79906U 24999ZYW 24269.49919926  .00000000  00000-0  00000-0 0 25343
2 79906 009.3585 250.1644 7045912 310.1703 086.1510 01.03362320    09

# Worst residual: 137.33 km
# MJD 60579.000000 (2024 Sep 26  0:00)
C43LR41 = A11bTdy
1 79906U 24999ZYW 24270.49919926  .00000000  00000-0  00000-0 0 25345
2 79906 009.3931 249.8264 7061948 310.9972 097.4998 01.03325641    00

# Worst residual: 132.52 km
# MJD 60580.000000 (2024 Sep 27  0:00)
C43LR41 = A11bTdy
1 79906U 24999ZYW 24271.49919926  .00000000  00000-0  00000-0 0 25346
2 79906 009.4265 249.5100 7077920 311.8062 108.8397 01.03294434    09

# Worst residual: 125.57 km
# MJD 60581.000000 (2024 Sep 28  0:00)
C43LR41 = A11bTdy
1 79906U 24999ZYW 24272.49919926  .00000000  00000-0  00000-0 0 25347
2 79906 009.4550 249.2206 7093527 312.5954 120.1472 01.03264535    09

# Worst residual: 112.45 km
# MJD 60582.000000 (2024 Sep 29  0:00)
C43LR41 = A11bTdy
1 79906U 24999ZYW 24273.49919926  .00000000  00000-0  00000-0 0 25348
2 79906 009.4871 248.9434 7106390 313.3736 131.4765 01.03239136    03

# Worst residual: 82.47 km
# MJD 60583.000000 (2024 Sep 30  0:00)
C43LR41 = A11bTdy
1 79906U 24999ZYW 24274.49919926  .00000000  00000-0  00000-0 0 25349
2 79906 009.5144 248.6957 7119305 314.1073 142.8488 01.03234326    01
